#aV2022 11 14  0  0  0.00000000     288 DD+AD WGS84 FIT  NGA
## 2236  86400.00000000   300.00000000 59897 0.0000000000000
+   32     1  2  3  4  5  6  7  8  9 10 11 12 13 14 15 16 17
+         18 19 20 21 22 23 24 25 26 27 28 29 30 31 32  0  0
+          0  0  0  0  0  0  0  0  0  0  0  0  0  0  0  0  0
+          0  0  0  0  0  0  0  0  0  0  0  0  0  0  0  0  0
+          0  0  0  0  0  0  0  0  0  0  0  0  0  0  0  0  0
++         2  2  2  2  2  2  2  2  2  2  2  2  2  2  2  2  2
++         2  2  2  2  2  2  2  2  2  2  2  2  2  2  2  0  0
++         0  0  0  0  0  0  0  0  0  0  0  0  0  0  0  0  0
++         0  0  0  0  0  0  0  0  0  0  0  0  0  0  0  0  0
++         0  0  0  0  0  0  0  0  0  0  0  0  0  0  0  0  0
%c cc cc ccc ccc cccc cccc cccc cccc ccccc ccccc ccccc ccccc
%c cc cc ccc ccc cccc cccc cccc cccc ccccc ccccc ccccc ccccc
%f  0.0000000  0.000000000  0.00000000000  0.000000000000000
%f  0.0000000  0.000000000  0.00000000000  0.000000000000000
%i    0    0    0    0      0      0      0      0         0
%i    0    0    0    0      0      0      0      0         0
/*      NGA, ST. LOUIS,MO.                                  
/*   EPHEMERIS COMPUTED FROM 2 DAYS OF DATA                 
/*   EPOCHA v8 SMOOTHER                                     
/*   G2139 IERS2010 SATIGS SATAPC                           
*  2022 11 14 16 15  0.00000000
P  1 -13304.384941   8091.747265  21144.876122    251.887401                    
V  1  -2903.640546 -27429.339375   8873.031844     -0.056561                    
P  2  11727.352184 -12303.628294 -19832.639031   -637.864543                    
V  2   5629.101598  25939.933058 -12183.446258      0.017229                    
P  3 -23105.554918  11441.509348   6020.211937   -372.695673                    
V  3   5008.919145  -6440.426302  30933.012206     -0.020424                    
P  4 -20643.193127   2612.329482 -16566.440954    -86.505417                    
V  4 -17998.857576 -10950.191596  20597.424720      0.066542                    
P  5  20667.123804  -1240.859272 -16875.895323   -104.278021                    
V  5 -15597.250483  14224.948936 -20239.908415     -0.014566                    
P  6   6328.888120  24964.346964  -6256.028638    518.046677                    
V  6  -1223.680348   8165.265783  31087.663115      0.092598                    
P  7  -6929.682478  21913.424525 -12450.846801    287.457265                    
V  7  -4533.106003 -16352.697077 -25887.304899     -0.046290                    
P  8 -25156.113512  -5072.008213   7511.526640    -93.792200                    
V  8  -7806.326353  -5901.532670 -29597.103037     -0.017857                    
P  9 -10673.155732  11840.397897 -21331.964019   -268.738574                    
V  9 -24485.709161 -11179.777500   6024.813446      0.056380                    
P 10   3605.427700 -18316.724563  18923.093181    -11.887861                    
V 10  20105.802224 -12752.077711 -16614.994115     -0.016457                    
P 11  12037.892033  17181.408040 -16304.887552    -39.696009                    
V 11   -909.586015  20749.232484  21146.463833     -0.059536                    
P 12  23864.802929  -9466.827591   6321.155645   -304.195227                    
V 12  -5797.336954   6615.250129  30599.904193     -0.044978                    
P 13  23034.510311  13310.959583   1597.068397    424.506512                    
V 13    588.859834   3229.506424 -31722.783706      0.067990                    
P 14  -6325.764994  19028.962435  17365.924427    -83.048295                    
V 14 -19513.469883  10574.431040 -18816.080579      0.051084                    
P 15  25534.212320   2274.038308   7038.737162    -12.452301                    
V 15   8093.737523   6013.214980 -29153.360669      0.031832                    
P 16 -17816.358091  -5120.359832 -19473.824988   -526.888783                    
V 16  20207.337278 -12895.120274 -14866.580854      0.000139                    
P 17   3072.897604  17255.314094  20376.732464    677.849748                    
V 17 -22349.812730 -10953.797426  13001.211015      0.032791                    
P 18   5933.456015 -23234.424748 -11263.387111    -21.829371                    
V 18   3268.631289  14126.982981 -27555.810647     -0.140106                    
P 19  14193.313722  18474.660323  12762.599677    237.306370                    
V 19 -15070.414610  -6853.569969  25951.567310      0.050619                    
P 20  12028.858685   9899.607263 -21485.244360    470.179908                    
V 20 -19233.475040  19500.763997  -2006.810492     -0.030618                    
P 21 -15865.269060  -1747.899813  21921.032949    156.061600                    
V 21  -4599.309355 -25914.732620  -4798.549829     -0.008074                    
P 22 -16233.631769 -18132.158342  11267.653057    364.493678                    
V 22  12927.047541   4778.227711  27170.759820      0.073926                    
P 23  13789.438903 -19797.600901  10942.149238     -1.018450                    
V 23  12481.838971  -6598.293542 -27783.874573      0.001979                    
P 24  15160.903440  -3877.811679  21111.162184     59.168657                    
V 24   5276.723325  27213.734964   1610.191325     -0.159788                    
P 25  19740.444375 -17270.771580  -3358.718819    392.557225                    
V 25   5058.211604    255.327242  31429.938962      0.037226                    
P 26  -8901.492559 -13081.892191 -21413.231264    235.771666                    
V 26  21265.976296 -16774.126682   1744.855686      0.011275                    
P 27 -23082.085035 -13162.470180  -3550.758356    178.052192                    
V 27   4693.001346   -216.807226 -31276.963110     -0.085918                    
P 28  13676.708660   8377.744483  21706.783616    314.520367                    
V 28  -5268.828246  25812.102305  -6548.887306     -0.055572                    
P 29  13034.336869  -9169.813822 -21303.373035   -567.157805                    
V 29  23270.535513  13473.605354   8376.312696     -0.026810                    
P 30    790.865982  26337.456411  -1854.065070   -536.699442                    
V 30  -4014.229194  -2166.651511 -31236.656321      0.003487                    
P 31  -7286.571803 -24101.365058  -7826.777393   -200.165094                    
V 31   2437.584674 -10065.863398  29761.317258     -0.012215                    
P 32  -7343.324276 -17649.223084  18672.296418   -296.083727                    
V 32  21858.290518   8286.585043  16366.582171     -0.125823                    
EOF
